NORAD_CAT_ID,OBJECT_NAME,OBJECT_TYPE,EPOCH,MEAN_MOTION,ECCENTRICITY,INCLINATION,RA_OF_ASC_NODE,ARG_OF_PERICENTER,MEAN_ANOMALY,BSTAR,MEAN_MOTION_DOT,MEAN_MOTION_DDOT,TLE_LINE0,TLE_LINE1,TLE_LINE2,SEMIMAJOR_AXIS,PERIOD,APOGEE,PERIGEE,DECAYED
53003.0,STARLINK-4255,PAYLOAD,2022-08-27 14:00:01,15.49828686,9.51e-05,53.2182,128.5549,88.4743,212.0802,0.00096832,0.00054781,0.0,0 STARLINK-4255,1 53003U 22076T   22239.58334491  .00054781  00000-0  96832-3 0  9999,2 53003  53.2182 128.5549 0000951  88.4743 212.0802 15.49828686  1303,6795.364000000001,92.913,417.875,416.583,0.0
53003.0,STARLINK-4255,PAYLOAD,2022-08-27 22:00:00,15.49872,0.0001,53.2183,126.9635,78.7927,282.6279,-0.00039932,-0.00023037,0.0,0 STARLINK-4255,1 53003U 22076T   22239.91667824 -.00023037  00000-0 -39932-3 0  9995,2 53003  53.2183 126.9635 0001000  78.7927 282.6279 15.49872000  1304,6795.236999999999,92.911,417.782,416.423,0.0
53003.0,STARLINK-4255,PAYLOAD,2022-08-28 12:00:00,15.49850191,9.01e-05,53.2181,124.1754,87.2035,290.7866,0.00088554,0.00050067,0.0,0 STARLINK-4255,1 53003U 22076T   22240.50001157  .00050067  00000-0  88554-3 0  9998,2 53003  53.2181 124.1754 0000901  87.2035 290.7866 15.49850191  8652,6795.301,92.912,417.778,416.554,0.0
53003.0,STARLINK-4255,PAYLOAD,2022-08-28 14:00:01,15.4986076,9.85e-05,53.218,123.7777,86.7415,36.4686,0.00065869,0.00037078,0.0,0 STARLINK-4255,1 53003U 22076T   22240.58334491  .00037078  00000-0  65869-3 0  9997,2 53003  53.2180 123.7777 0000985  86.7415  36.4686 15.49860760  1302,6795.27,92.912,417.804,416.466,0.0
53003.0,STARLINK-4255,PAYLOAD,2022-08-28 20:00:01,15.50035098,0.0001107,53.2179,122.5861,77.5177,1.3418,-0.011062,-0.00586474,0.0,0 STARLINK-4255,1 53003U 22076T   22240.83334491 -.00586474  00000-0 -11062-1 0  9990,2 53003  53.2179 122.5861 0001107  77.5177   1.3418 15.50035098  8706,6794.76,92.901,417.378,415.87300000000016,0.0
53003.0,STARLINK-4255,PAYLOAD,2022-08-28 22:00:00,15.49935223,0.0001196,53.218,122.1894,80.8749,103.239,-0.011099,-0.00586367,0.0,0 STARLINK-4255,1 53003U 22076T   22240.91667824 -.00586367  00000-0 -11099-1 0  9999,2 53003  53.2180 122.1894 0001196  80.8749 103.2390 15.49935223  1307,6795.052,92.907,417.73,416.105,0.0
53003.0,STARLINK-4255,PAYLOAD,2022-08-29 04:00:00,15.49775031,0.0001255,53.2175,120.9981,89.2183,50.4457,-0.0195849999999999,-0.01009997,0.0,0 STARLINK-4255,1 53003U 22076T   22241.16667824 -.01009997  00000-0 -19585-1 0  9995,2 53003  53.2175 120.9981 0001255  89.2183  50.4457 15.49775031  8757,6795.521,92.917,418.23800000000006,416.533,0.0
53003.0,STARLINK-4255,PAYLOAD,2022-08-29 12:00:00,15.4904677,0.0001317,53.2174,119.4068,67.6692,132.3379,-0.021088,-0.01055267,0.0,0 STARLINK-4255,1 53003U 22076T   22241.50001157 -.01055267  00000-0 -21088-1 0  9996,2 53003  53.2174 119.4068 0001317  67.6692 132.3379 15.49046770  8810,6797.65,92.96,420.411,418.62,0.0
53003.0,STARLINK-4255,PAYLOAD,2022-08-29 14:00:01,15.48856812,0.0001163,53.2174,119.0093,71.46,233.4936,-0.021244,-0.01055849,0.0,0 STARLINK-4255,1 53003U 22076T   22241.58334491 -.01055849  00000-0 -21244-1 0  9994,2 53003  53.2174 119.0093 0001163  71.4600 233.4936 15.48856812  1309,6798.206,92.972,420.862,419.28,0.0
53003.0,STARLINK-4255,PAYLOAD,2022-08-29 22:00:00,15.48099854,0.0001163,53.2175,117.4235,66.9053,297.2608,-0.021893,-0.01059116,0.0,0 STARLINK-4255,1 53003U 22076T   22241.91667824 -.01059116  00000-0 -21893-1 0  9991,2 53003  53.2175 117.4235 0001163  66.9053 297.2608 15.48099854  1300,6800.422,93.017,423.078,421.496,0.0
53003.0,STARLINK-4255,PAYLOAD,2022-08-30 04:00:00,15.47529476,0.0001093,53.2174,116.2341,78.9593,239.0189,-0.022282,-0.01056784,0.0,0 STARLINK-4255,1 53003U 22076T   22242.16667824 -.01056784  00000-0 -22282-1 0  9990,2 53003  53.2174 116.2341 0001093  78.9593 239.0189 15.47529476  8917,6802.093000000003,93.052,424.701,423.214,0.0
53003.0,STARLINK-4255,PAYLOAD,2022-08-30 14:00:01,15.46601478,0.0001244,53.2175,114.2501,65.4116,54.4364,-0.023684,-0.01084635,0.0,0 STARLINK-4255,1 53003U 22076T   22242.58334491 -.01084635  00000-0 -23684-1 0  9990,2 53003  53.2175 114.2501 0001244  65.4116  54.4364 15.46601478  1306,6804.814,93.107,427.525,425.832,0.0
53003.0,STARLINK-4255,PAYLOAD,2022-08-30 22:00:00,15.45846838,0.0001311,53.2178,112.67,79.5136,96.8075,-0.02445,-0.0110586,0.0,0 STARLINK-4255,1 53003U 22076T   22242.91667824 -.01105860  00000-0 -24450-1 0  9992,2 53003  53.2178 112.6700 0001311  79.5136  96.8075 15.45846838  9032,6807.028,93.153,429.785,428.001,0.0
53003.0,STARLINK-4255,PAYLOAD,2022-08-31 14:00:01,15.44299923,0.0001199,53.2175,109.5105,85.4449,201.1069,-0.024863,-0.01054682,0.0,0 STARLINK-4255,1 53003U 22076T   22243.58334491 -.01054682  00000-0 -24863-1 0  9990,2 53003  53.2175 109.5105 0001199  85.4449 201.1069 15.44299923  1302,6811.573,93.246,434.255,432.621,0.0
53003.0,STARLINK-4255,PAYLOAD,2022-08-31 22:00:00,15.43559534,0.0001109,53.2176,107.9344,89.1279,251.1504,-0.026085,-0.01091961,0.0,0 STARLINK-4255,1 53003U 22076T   22243.91667824 -.01091961  00000-0 -26085-1 0  9995,2 53003  53.2176 107.9344 0001109  89.1279 251.1504 15.43559534  1308,6813.751,93.291,436.372,434.86,0.0
53003.0,STARLINK-4255,PAYLOAD,2022-09-01 04:00:01,15.42973343,0.0001165999999999,53.2171,106.7541,93.8406,196.2174,-0.026104,-0.01072885,0.0,0 STARLINK-4255,1 53003U 22076T   22244.16668981 -.01072885  00000-0 -26104-1 0  9994,2 53003  53.2171 106.7541 0001166  93.8406 196.2174 15.42973343  9224,6815.477,93.326,438.136,436.547,0.0
53003.0,STARLINK-4255,PAYLOAD,2022-09-01 14:00:01,15.42051003,0.0001142,53.2173,104.7839,71.5992,13.4803,-0.027877,-0.01107506,0.0,0 STARLINK-4255,1 53003U 22076T   22244.58335648 -.01107506  00000-0 -27877-1 0  9998,2 53003  53.2173 104.7839 0001142  71.5992  13.4803 15.42051003  1301,6818.194,93.382,440.838,439.28,0.0
53003.0,STARLINK-4255,PAYLOAD,2022-09-01 22:00:00,15.41263639,0.0001357,53.2173,103.2164,69.4,66.62899999999999,-0.02761,-0.01071452,0.0,0 STARLINK-4255,1 53003U 22076T   22244.91667824 -.01071452  00000-0 -27610-1 0  9994,2 53003  53.2173 103.2164 0001357  69.4000  66.6290 15.41263639  9330,6820.516,93.43,443.306,441.455,0.0
53003.0,STARLINK-4255,PAYLOAD,2022-09-02 14:00:01,15.39743393,0.0001314,53.2173,100.0771,86.7179,148.5759,-0.028959,-0.01068547,0.0,0 STARLINK-4255,1 53003U 22076T   22245.58334491 -.01068547  00000-0 -28959-1 0  9997,2 53003  53.2173 100.0771 0001314  86.7179 148.5759 15.39743393  1307,6825.004,93.522,447.766,445.973,0.0
53003.0,STARLINK-4255,PAYLOAD,2022-09-02 20:00:01,15.39172217,0.0001426,53.2173,98.9041,66.9664,114.61,-0.029459,-0.01066828,0.0,0 STARLINK-4255,1 53003U 22076T   22245.83334491 -.01066828  00000-0 -29459-1 0  9991,2 53003  53.2173  98.9041 0001426  66.9664 114.6100 15.39172217  9487,6826.693,93.557,449.531,447.584,0.0
53003.0,STARLINK-4255,PAYLOAD,2022-09-02 22:00:01,15.38984059,0.0001303,53.2173,98.5132,70.9175,212.7022,-0.029718,-0.01069302,0.0,0 STARLINK-4255,1 53003U 22076T   22245.91668981 -.01069302  00000-0 -29718-1 0  9992,2 53003  53.2173  98.5132 0001303  70.9175 212.7022 15.38984059  1300,6827.249,93.568,450.004,448.225,0.0
53003.0,STARLINK-4255,PAYLOAD,2022-09-03 14:00:01,15.37500041,0.0001220999999999,53.2176,95.3831,75.0721,302.2541,-0.0326199999999999,-0.01113851,0.0,0 STARLINK-4255,1 53003U 22076T   22246.58334491 -.01113851  00000-0 -32620-1 0  9997,2 53003  53.2176  95.3831 0001221  75.0721 302.2541 15.37500041  9590,6831.642,93.659,454.341,452.673,0.0
53003.0,STARLINK-4255,PAYLOAD,2022-09-03 22:00:00,15.36707408,0.0001278,53.2175,93.8264,64.8681,357.999,-0.032106,-0.01072038,0.0,0 STARLINK-4255,1 53003U 22076T   22246.91667824 -.01072038  00000-0 -32106-1 0  9993,2 53003  53.2175  93.8264 0001278  64.8681 357.9990 15.36707408  1306,6833.991,93.707,456.729,454.982,0.0
53003.0,STARLINK-4255,PAYLOAD,2022-09-04 06:00:00,15.35946217,0.0001217,53.2174,92.2665,81.3449,26.1358,-0.032809,-0.0106907,0.0,0 STARLINK-4255,1 53003U 22076T   22247.25001157 -.01069070  00000-0 -32809-1 0  9994,2 53003  53.2174  92.2665 0001217  81.3449  26.1358 15.35946217  9697,6836.248000000001,93.753,458.945,457.281,0.0
53003.0,STARLINK-4255,PAYLOAD,2022-09-04 14:00:01,15.35230362,0.0001419,53.2178,90.707,69.5995,81.6193,-0.035341,-0.01120586,0.0,0 STARLINK-4255,1 53003U 22076T   22247.58335648 -.01120586  00000-0 -35341-1 0  9999,2 53003  53.2178  90.7070 0001419  69.5995  81.6193 15.35230362  1302,6838.373000000001,93.797,461.209,459.268,0.0
53003.0,STARLINK-4255,PAYLOAD,2022-09-04 16:00:00,15.35021094,0.0001334,53.2177,90.3188,72.5928,179.3582,-0.0349089999999999,-0.01101202,0.0,0 STARLINK-4255,1 53003U 22076T   22247.66667824 -.01101202  00000-0 -34909-1 0  9995,2 53003  53.2177  90.3188 0001334  72.5928 179.3582 15.35021094  9768,6838.995,93.81,461.772,459.948,0.0
53003.0,STARLINK-4255,PAYLOAD,2022-09-04 20:00:01,15.34617145,0.0001401,53.2175,89.544,58.1503,35.2049,-0.034241,-0.0106906,0.0,0 STARLINK-4255,1 53003U 22076T   22247.83334491 -.01069060  00000-0 -34241-1 0  9999,2 53003  53.2175  89.5440 0001401  58.1503  35.2049 15.34617145  1308,6840.195,93.834,463.018,461.102,0.0
53003.0,STARLINK-4255,PAYLOAD,2022-09-05 14:00:01,15.32907344,0.0001289,53.2177,86.04899999999998,77.9564,198.8463,-0.036054,-0.01066199,0.0,0 STARLINK-4255,1 53003U 22076T   22248.58334491 -.01066199  00000-0 -36054-1 0  9996,2 53003  53.2177  86.0490 0001289  77.9564 198.8463 15.32907344  1304,6845.28,93.939,468.028,466.263,0.0
53003.0,STARLINK-4255,PAYLOAD,2022-09-05 20:00:01,15.32336604,0.0001474,53.2176,84.8881,65.2087,151.716,-0.03668,-0.01065412,0.0,0 STARLINK-4255,1 53003U 22076T   22248.83334491 -.01065412  00000-0 -36680-1 0  9996,2 53003  53.2176  84.8881 0001474  65.2087 151.7160 15.32336604  9944,6846.98,93.974,469.854,467.836,0.0
